{
  "type": "FeatureCollection",
  "features": [
    {
      "type": "Feature",
      "properties": {
        "norad_id": 38755,
        "name": "SPOT 6",
        "group": "resource",
        "lat": -26.812708953165895,
        "lon": 64.0248160142896,
        "alt_km": 703.8700841444752,
        "timestamp": "2025-12-21T05:44:51.232731+00:00",
        "meta_object_name": "SPOT 6",
        "meta_object_id": "2012-047A",
        "meta_epoch": "2025-12-20T23:17:08.699712",
        "meta_mean_motion": 14.58538332,
        "meta_eccentricity": 0.00013292,
        "meta_inclination": 98.1569,
        "meta_ra_of_asc_node": 59.6035,
        "meta_arg_of_pericenter": 78.9519,
        "meta_mean_anomaly": 281.183,
        "meta_ephemeris_type": 0,
        "meta_classification_type": "U",
        "meta_norad_cat_id": 38755,
        "meta_element_set_no": 999,
        "meta_rev_at_epoch": 70707,
        "meta_bstar": 3.5421247e-05,
        "meta_mean_motion_dot": 1.19e-06,
        "meta_mean_motion_ddot": 0,
        "tle_line1": "1 38755U 12047A   25354.97023958  .00000119  00000+0  35421-4 0  9993",
        "tle_line2": "2 38755  98.1569  59.6035 0001329  78.9519 281.1830 14.58538332707076"
      },
      "geometry": {
        "type": "Point",
        "coordinates": [
          64.0248160142896,
          -26.812708953165895
        ]
      }
    },
    {
      "type": "Feature",
      "properties": {
        "norad_id": 39019,
        "name": "PLEIADES 1B",
        "group": "resource",
        "lat": -50.50249754675117,
        "lon": -122.29178157033527,
        "alt_km": 705.4444884625527,
        "timestamp": "2025-12-21T05:44:51.232741+00:00",
        "meta_object_name": "PLEIADES 1B",
        "meta_object_id": "2012-068A",
        "meta_epoch": "2025-12-20T22:06:19.271232",
        "meta_mean_motion": 14.58558975,
        "meta_eccentricity": 0.00011862,
        "meta_inclination": 98.1792,
        "meta_ra_of_asc_node": 67.4439,
        "meta_arg_of_pericenter": 84.9945,
        "meta_mean_anomaly": 275.1389,
        "meta_ephemeris_type": 0,
        "meta_classification_type": "U",
        "meta_norad_cat_id": 39019,
        "meta_element_set_no": 999,
        "meta_rev_at_epoch": 69486,
        "meta_bstar": 2.8736313e-05,
        "meta_mean_motion_dot": 8.8e-07,
        "meta_mean_motion_ddot": 0,
        "tle_line1": "1 39019U 12068A   25354.92105638  .00000088  00000+0  28736-4 0  9997",
        "tle_line2": "2 39019  98.1792  67.4439 0001186  84.9945 275.1389 14.58558975694863"
      },
      "geometry": {
        "type": "Point",
        "coordinates": [
          -122.29178157033527,
          -50.50249754675117
        ]
      }
    },
    {
      "type": "Feature",
      "properties": {
        "norad_id": 39030,
        "name": "GOKTURK 2",
        "group": "resource",
        "lat": -56.928330331716374,
        "lon": 4.501210557220244,
        "alt_km": 651.8837659790988,
        "timestamp": "2025-12-21T05:44:51.232751+00:00",
        "meta_object_name": "GOKTURK 2",
        "meta_object_id": "2012-073A",
        "meta_epoch": "2025-12-20T22:09:44.928288",
        "meta_mean_motion": 14.75301722,
        "meta_eccentricity": 0.00012804,
        "meta_inclination": 97.6886,
        "meta_ra_of_asc_node": 196.1742,
        "meta_arg_of_pericenter": 107.1047,
        "meta_mean_anomaly": 253.0303,
        "meta_ephemeris_type": 0,
        "meta_classification_type": "U",
        "meta_norad_cat_id": 39030,
        "meta_element_set_no": 999,
        "meta_rev_at_epoch": 69822,
        "meta_bstar": 9.5800001e-05,
        "meta_mean_motion_dot": 6.02e-06,
        "meta_mean_motion_ddot": 0,
        "tle_line1": "1 39030U 12073A   25354.92343667  .00000602  00000+0  95800-4 0  9990",
        "tle_line2": "2 39030  97.6886 196.1742 0001280 107.1047 253.0303 14.75301722698227"
      },
      "geometry": {
        "type": "Point",
        "coordinates": [
          4.501210557220244,
          -56.928330331716374
        ]
      }
    },
    {
      "type": "Feature",
      "properties": {
        "norad_id": 39084,
        "name": "LANDSAT 8",
        "group": "resource",
        "lat": -3.0150844949625704,
        "lon": 63.622543081393474,
        "alt_km": 705.9226389433779,
        "timestamp": "2025-12-21T05:44:51.232761+00:00",
        "meta_object_name": "LANDSAT 8",
        "meta_object_id": "2013-008A",
        "meta_epoch": "2025-12-20T21:31:16.161312",
        "meta_mean_motion": 14.57110164,
        "meta_eccentricity": 0.00010802,
        "meta_inclination": 98.2062,
        "meta_ra_of_asc_node": 62.8494,
        "meta_arg_of_pericenter": 90.9194,
        "meta_mean_anomaly": 269.2129,
        "meta_ephemeris_type": 0,
        "meta_classification_type": "U",
        "meta_norad_cat_id": 39084,
        "meta_element_set_no": 999,
        "meta_rev_at_epoch": 67193,
        "meta_bstar": 7.6238618e-05,
        "meta_mean_motion_dot": 2.98e-06,
        "meta_mean_motion_ddot": 0,
        "tle_line1": "1 39084U 13008A   25354.89671483  .00000298  00000+0  76239-4 0  9990",
        "tle_line2": "2 39084  98.2062  62.8494 0001080  90.9194 269.2129 14.57110164671934"
      },
      "geometry": {
        "type": "Point",
        "coordinates": [
          63.622543081393474,
          -3.0150844949625704
        ]
      }
    },
    {
      "type": "Feature",
      "properties": {
        "norad_id": 39086,
        "name": "SARAL",
        "group": "resource",
        "lat": -40.77244628465247,
        "lon": -173.48706660794466,
        "alt_km": 790.4984482805794,
        "timestamp": "2025-12-21T05:44:51.232771+00:00",
        "meta_object_name": "SARAL",
        "meta_object_id": "2013-009A",
        "meta_epoch": "2025-12-20T21:33:35.621280",
        "meta_mean_motion": 14.32759617,
        "meta_eccentricity": 0.00029626,
        "meta_inclination": 98.5502,
        "meta_ra_of_asc_node": 178.7222,
        "meta_arg_of_pericenter": 93.3653,
        "meta_mean_anomaly": 266.787,
        "meta_ephemeris_type": 0,
        "meta_classification_type": "U",
        "meta_norad_cat_id": 39086,
        "meta_element_set_no": 999,
        "meta_rev_at_epoch": 67007,
        "meta_bstar": 4.3767718e-05,
        "meta_mean_motion_dot": 7.6e-07,
        "meta_mean_motion_ddot": 0,
        "tle_line1": "1 39086U 13009A   25354.89832895  .00000076  00000+0  43768-4 0  9994",
        "tle_line2": "2 39086  98.5502 178.7222 0002962  93.3653 266.7870 14.32759617670075"
      },
      "geometry": {
        "type": "Point",
        "coordinates": [
          -173.48706660794466,
          -40.77244628465247
        ]
      }
    },
    {
      "type": "Feature",
      "properties": {
        "norad_id": 39150,
        "name": "GAOFEN-1",
        "group": "resource",
        "lat": -6.797607801289417,
        "lon": 66.70108978259408,
        "alt_km": 651.4725936020504,
        "timestamp": "2025-12-21T05:44:51.232782+00:00",
        "meta_object_name": "GAOFEN-1",
        "meta_object_id": "2013-018A",
        "meta_epoch": "2025-12-20T23:16:22.017792",
        "meta_mean_motion": 14.76492743,
        "meta_eccentricity": 0.00184196,
        "meta_inclination": 97.9324,
        "meta_ra_of_asc_node": 65.4838,
        "meta_arg_of_pericenter": 118.0477,
        "meta_mean_anomaly": 242.2598,
        "meta_ephemeris_type": 0,
        "meta_classification_type": "U",
        "meta_norad_cat_id": 39150,
        "meta_element_set_no": 999,
        "meta_rev_at_epoch": 68194,
        "meta_bstar": 7.2303344e-05,
        "meta_mean_motion_dot": 4.54e-06,
        "meta_mean_motion_ddot": 0,
        "tle_line1": "1 39150U 13018A   25354.96969928  .00000454  00000+0  72303-4 0  9999",
        "tle_line2": "2 39150  97.9324  65.4838 0018419 118.0477 242.2598 14.76492743681946"
      },
      "geometry": {
        "type": "Point",
        "coordinates": [
          66.70108978259408,
          -6.797607801289417
        ]
      }
    },
    {
      "type": "Feature",
      "properties": {
        "norad_id": 39160,
        "name": "VNREDSAT 1",
        "group": "resource",
        "lat": 60.50376694869944,
        "lon": 35.939145229996946,
        "alt_km": 670.6074229460892,
        "timestamp": "2025-12-21T05:44:51.232791+00:00",
        "meta_object_name": "VNREDSAT 1",
        "meta_object_id": "2013-021B",
        "meta_epoch": "2025-12-20T22:54:38.671200",
        "meta_mean_motion": 14.64933982,
        "meta_eccentricity": 0.00012063,
        "meta_inclination": 97.9368,
        "meta_ra_of_asc_node": 49.9418,
        "meta_arg_of_pericenter": 81.0825,
        "meta_mean_anomaly": 279.0515,
        "meta_ephemeris_type": 0,
        "meta_classification_type": "U",
        "meta_norad_cat_id": 39160,
        "meta_element_set_no": 999,
        "meta_rev_at_epoch": 67419,
        "meta_bstar": 9.0804064e-05,
        "meta_mean_motion_dot": 4.4e-06,
        "meta_mean_motion_ddot": 0,
        "tle_line1": "1 39160U 13021B   25354.95461425  .00000440  00000+0  90804-4 0  9993",
        "tle_line2": "2 39160  97.9368  49.9418 0001206  81.0825 279.0515 14.64933982674196"
      },
      "geometry": {
        "type": "Point",
        "coordinates": [
          35.939145229996946,
          60.50376694869944
        ]
      }
    }
  ]
}